ATLAS CENTAUR 2         
1 00694U 63047A   25334.63041193  .00003656  00000+0  43540-3 0  9991
2 00694  30.3590  29.0898 0549473 287.5147  66.6153 14.11648419117615
THOR AGENA D R/B        
1 00733U 64002A   25334.99987761  .00000277  00000+0  11605-3 0  9999
2 00733  99.1220 337.9838 0032811 184.1709 175.9206 14.33948353224151
SL-3 R/B                
1 00877U 64053B   25334.93779092  .00000477  00000+0  11725-3 0  9999
2 00877  65.0769 260.7266 0072827 324.2851  35.3389 14.61256140252366
SL-8 R/B                
1 02802U 67045B   25334.95831749  .00000330  00000+0  98998-4 0  9999
2 02802  74.0091 172.4616 0064854 204.4754 155.3323 14.45520089 74758
SL-8 R/B                
1 03230U 68040B   25334.92125440  .00004184  00000+0  31693-3 0  9991
2 03230  74.0297 155.3778 0024654 359.6211   0.4954 15.02397583 75178
OAO 2                   
1 03597U 68110A   25334.71448429  .00000283  00000+0  81588-4 0  9992
2 03597  34.9927  97.7908 0004964 126.9864 233.1282 14.47230896  4750
ISIS 1                  
1 03669U 69009A   25334.93410773  .00000214  00000+0  15643-3 0  9997
2 03669  88.4488 166.0877 1706927 288.5601  53.7988 11.30346659337374
SERT 2                  
1 04327U 70009A   25334.87933221  .00000021  00000+0  85332-4 0  9991
2 04327  99.2632 278.4428 0005639  60.9919   8.0139 13.58715193766475
SL-3 R/B                
1 05118U 71028B   25334.95629835  .00028736  00000+0  44677-3 0  9993
2 05118  81.2383 173.2424 0019698 283.4165  76.4889 15.53547298973300
ASTEX 1                 
1 05560U 71089A   25334.97836898  .00000677  00000+0  17261-3 0  9995
2 05560  92.7131 119.8143 0017564  62.2074 298.0910 14.50618531847992
SL-8 R/B                
1 05730U 71119B   25334.56147279  .00010592  00000+0  55644-3 0  9995
2 05730  73.8892   0.6815 0560427 347.4042  11.3563 14.35340935641256
OAO 3 (COPERNICUS)      
1 06153U 72065A   25334.93338257  .00000413  00000+0  89412-4 0  9997
2 06153  35.0037 139.9211 0005978  69.8322  94.7212 14.59888656831759
