CCSDS_OMM_VERS = 2.0
CREATION_DATE  = 
ORIGINATOR     = 

OBJECT_NAME    = ATLAS CENTAUR 2
OBJECT_ID      = 1963-047A
CENTER_NAME    = EARTH
REF_FRAME      = TEME
TIME_SYSTEM    = UTC
MEAN_ELEMENT_THEORY = SGP/SGP4

EPOCH          = 2025-11-30T15:07:47.590752
MEAN_MOTION    = 14.11648419
ECCENTRICITY   = .05494735
INCLINATION    = 30.3590
RA_OF_ASC_NODE = 29.0898
ARG_OF_PERICENTER = 287.5147
MEAN_ANOMALY   = 66.6153

EPHEMERIS_TYPE = 0
CLASSIFICATION_TYPE = U
NORAD_CAT_ID   = 694
ELEMENT_SET_NO = 999
REV_AT_EPOCH   = 11761
BSTAR          = .43539715E-3
MEAN_MOTION_DOT = .3656E-4
MEAN_MOTION_DDOT = 0

CCSDS_OMM_VERS = 2.0
CREATION_DATE  = 
ORIGINATOR     = 

OBJECT_NAME    = THOR AGENA D R/B
OBJECT_ID      = 1964-002A
CENTER_NAME    = EARTH
REF_FRAME      = TEME
TIME_SYSTEM    = UTC
MEAN_ELEMENT_THEORY = SGP/SGP4

EPOCH          = 2025-11-30T23:59:49.425504
MEAN_MOTION    = 14.33948353
ECCENTRICITY   = .00328115
INCLINATION    = 99.1220
RA_OF_ASC_NODE = 337.9838
ARG_OF_PERICENTER = 184.1709
MEAN_ANOMALY   = 175.9206

EPHEMERIS_TYPE = 0
CLASSIFICATION_TYPE = U
NORAD_CAT_ID   = 733
ELEMENT_SET_NO = 999
REV_AT_EPOCH   = 22415
BSTAR          = .11604784E-3
MEAN_MOTION_DOT = .277E-5
MEAN_MOTION_DDOT = 0

CCSDS_OMM_VERS = 2.0
CREATION_DATE  = 
ORIGINATOR     = 

OBJECT_NAME    = SL-3 R/B
OBJECT_ID      = 1964-053B
CENTER_NAME    = EARTH
REF_FRAME      = TEME
TIME_SYSTEM    = UTC
MEAN_ELEMENT_THEORY = SGP/SGP4

EPOCH          = 2025-11-30T22:30:25.135488
MEAN_MOTION    = 14.61256140
ECCENTRICITY   = .00728279
INCLINATION    = 65.0769
RA_OF_ASC_NODE = 260.7266
ARG_OF_PERICENTER = 324.2851
MEAN_ANOMALY   = 35.3389

EPHEMERIS_TYPE = 0
CLASSIFICATION_TYPE = U
NORAD_CAT_ID   = 877
ELEMENT_SET_NO = 999
REV_AT_EPOCH   = 25236
BSTAR          = .11725469E-3
MEAN_MOTION_DOT = .477E-5
MEAN_MOTION_DDOT = 0

CCSDS_OMM_VERS = 2.0
CREATION_DATE  = 
ORIGINATOR     = 

OBJECT_NAME    = SL-8 R/B
OBJECT_ID      = 1967-045B
CENTER_NAME    = EARTH
REF_FRAME      = TEME
TIME_SYSTEM    = UTC
MEAN_ELEMENT_THEORY = SGP/SGP4

EPOCH          = 2025-11-30T22:59:58.631136
MEAN_MOTION    = 14.45520089
ECCENTRICITY   = .00648548
INCLINATION    = 74.0091
RA_OF_ASC_NODE = 172.4616
ARG_OF_PERICENTER = 204.4754
MEAN_ANOMALY   = 155.3323

EPHEMERIS_TYPE = 0
CLASSIFICATION_TYPE = U
NORAD_CAT_ID   = 2802
ELEMENT_SET_NO = 999
REV_AT_EPOCH   = 7475
BSTAR          = .98998459E-4
MEAN_MOTION_DOT = .33E-5
MEAN_MOTION_DDOT = 0

CCSDS_OMM_VERS = 2.0
CREATION_DATE  = 
ORIGINATOR     = 

OBJECT_NAME    = SL-8 R/B
OBJECT_ID      = 1968-040B
CENTER_NAME    = EARTH
REF_FRAME      = TEME
TIME_SYSTEM    = UTC
MEAN_ELEMENT_THEORY = SGP/SGP4

EPOCH          = 2025-11-30T22:06:36.380160
MEAN_MOTION    = 15.02397583
ECCENTRICITY   = .00246546
INCLINATION    = 74.0297
RA_OF_ASC_NODE = 155.3778
ARG_OF_PERICENTER = 359.6211
MEAN_ANOMALY   = 0.4954

EPHEMERIS_TYPE = 0
CLASSIFICATION_TYPE = U
NORAD_CAT_ID   = 3230
ELEMENT_SET_NO = 999
REV_AT_EPOCH   = 7517
BSTAR          = .31692713E-3
MEAN_MOTION_DOT = .4184E-4
MEAN_MOTION_DDOT = 0

CCSDS_OMM_VERS = 2.0
CREATION_DATE  = 
ORIGINATOR     = 

OBJECT_NAME    = OAO 2
OBJECT_ID      = 1968-110A
CENTER_NAME    = EARTH
REF_FRAME      = TEME
TIME_SYSTEM    = UTC
MEAN_ELEMENT_THEORY = SGP/SGP4

EPOCH          = 2025-11-30T17:08:51.442656
MEAN_MOTION    = 14.47230896
ECCENTRICITY   = .00049643
INCLINATION    = 34.9927
RA_OF_ASC_NODE = 97.7908
ARG_OF_PERICENTER = 126.9864
MEAN_ANOMALY   = 233.1282

EPHEMERIS_TYPE = 0
CLASSIFICATION_TYPE = U
NORAD_CAT_ID   = 3597
ELEMENT_SET_NO = 999
REV_AT_EPOCH   = 475
BSTAR          = .81587808E-4
MEAN_MOTION_DOT = .283E-5
MEAN_MOTION_DDOT = 0

CCSDS_OMM_VERS = 2.0
CREATION_DATE  = 
ORIGINATOR     = 

OBJECT_NAME    = ISIS 1
OBJECT_ID      = 1969-009A
CENTER_NAME    = EARTH
REF_FRAME      = TEME
TIME_SYSTEM    = UTC
MEAN_ELEMENT_THEORY = SGP/SGP4

EPOCH          = 2025-11-30T22:25:06.907872
MEAN_MOTION    = 11.30346659
ECCENTRICITY   = .17069277
INCLINATION    = 88.4488
RA_OF_ASC_NODE = 166.0877
ARG_OF_PERICENTER = 288.5601
MEAN_ANOMALY   = 53.7988

EPHEMERIS_TYPE = 0
CLASSIFICATION_TYPE = U
NORAD_CAT_ID   = 3669
ELEMENT_SET_NO = 999
REV_AT_EPOCH   = 33737
BSTAR          = .15642545E-3
MEAN_MOTION_DOT = .214E-5
MEAN_MOTION_DDOT = 0

CCSDS_OMM_VERS = 2.0
CREATION_DATE  = 
ORIGINATOR     = 

OBJECT_NAME    = SERT 2
OBJECT_ID      = 1970-009A
CENTER_NAME    = EARTH
REF_FRAME      = TEME
TIME_SYSTEM    = UTC
MEAN_ELEMENT_THEORY = SGP/SGP4

EPOCH          = 2025-11-30T21:06:14.302944
MEAN_MOTION    = 13.58715193
ECCENTRICITY   = .00056396
INCLINATION    = 99.2632
RA_OF_ASC_NODE = 278.4428
ARG_OF_PERICENTER = 60.9919
MEAN_ANOMALY   = 8.0139

EPHEMERIS_TYPE = 0
CLASSIFICATION_TYPE = U
NORAD_CAT_ID   = 4327
ELEMENT_SET_NO = 999
REV_AT_EPOCH   = 76647
BSTAR          = .85331828E-4
MEAN_MOTION_DOT = .21E-6
MEAN_MOTION_DDOT = 0

CCSDS_OMM_VERS = 2.0
CREATION_DATE  = 
ORIGINATOR     = 

OBJECT_NAME    = SL-3 R/B
OBJECT_ID      = 1971-028B
CENTER_NAME    = EARTH
REF_FRAME      = TEME
TIME_SYSTEM    = UTC
MEAN_ELEMENT_THEORY = SGP/SGP4

EPOCH          = 2025-11-30T22:57:04.177440
MEAN_MOTION    = 15.53547298
ECCENTRICITY   = .00196982
INCLINATION    = 81.2383
RA_OF_ASC_NODE = 173.2424
ARG_OF_PERICENTER = 283.4165
MEAN_ANOMALY   = 76.4889

EPHEMERIS_TYPE = 0
CLASSIFICATION_TYPE = U
NORAD_CAT_ID   = 5118
ELEMENT_SET_NO = 999
REV_AT_EPOCH   = 97330
BSTAR          = .44676924E-3
MEAN_MOTION_DOT = .28736E-3
MEAN_MOTION_DDOT = 0

CCSDS_OMM_VERS = 2.0
CREATION_DATE  = 
ORIGINATOR     = 

OBJECT_NAME    = ASTEX 1
OBJECT_ID      = 1971-089A
CENTER_NAME    = EARTH
REF_FRAME      = TEME
TIME_SYSTEM    = UTC
MEAN_ELEMENT_THEORY = SGP/SGP4

EPOCH          = 2025-11-30T23:28:51.079872
MEAN_MOTION    = 14.50618531
ECCENTRICITY   = .0017564
INCLINATION    = 92.7131
RA_OF_ASC_NODE = 119.8143
ARG_OF_PERICENTER = 62.2074
MEAN_ANOMALY   = 298.0910

EPHEMERIS_TYPE = 0
CLASSIFICATION_TYPE = U
NORAD_CAT_ID   = 5560
ELEMENT_SET_NO = 999
REV_AT_EPOCH   = 84799
BSTAR          = .17261423E-3
MEAN_MOTION_DOT = .677E-5
MEAN_MOTION_DDOT = 0

CCSDS_OMM_VERS = 2.0
CREATION_DATE  = 
ORIGINATOR     = 

OBJECT_NAME    = SL-8 R/B
OBJECT_ID      = 1971-119B
CENTER_NAME    = EARTH
REF_FRAME      = TEME
TIME_SYSTEM    = UTC
MEAN_ELEMENT_THEORY = SGP/SGP4

EPOCH          = 2025-11-30T13:28:31.249056
MEAN_MOTION    = 14.35340935
ECCENTRICITY   = .0560427
INCLINATION    = 73.8892
RA_OF_ASC_NODE = 0.6815
ARG_OF_PERICENTER = 347.4042
MEAN_ANOMALY   = 11.3563

EPHEMERIS_TYPE = 0
CLASSIFICATION_TYPE = U
NORAD_CAT_ID   = 5730
ELEMENT_SET_NO = 999
REV_AT_EPOCH   = 64125
BSTAR          = .55644E-3
MEAN_MOTION_DOT = .10592E-3
MEAN_MOTION_DDOT = 0

CCSDS_OMM_VERS = 2.0
CREATION_DATE  = 
ORIGINATOR     = 

OBJECT_NAME    = OAO 3 (COPERNICUS)
OBJECT_ID      = 1972-065A
CENTER_NAME    = EARTH
REF_FRAME      = TEME
TIME_SYSTEM    = UTC
MEAN_ELEMENT_THEORY = SGP/SGP4

EPOCH          = 2025-11-30T22:24:04.254048
MEAN_MOTION    = 14.59888656
ECCENTRICITY   = .00059783
INCLINATION    = 35.0037
RA_OF_ASC_NODE = 139.9211
ARG_OF_PERICENTER = 69.8322
MEAN_ANOMALY   = 94.7212

EPHEMERIS_TYPE = 0
CLASSIFICATION_TYPE = U
NORAD_CAT_ID   = 6153
ELEMENT_SET_NO = 999
REV_AT_EPOCH   = 83175
BSTAR          = .89411932E-4
MEAN_MOTION_DOT = .413E-5
MEAN_MOTION_DDOT = 0

